{
  "type": "FeatureCollection",
  "features": [
    {
      "type": "Feature",
      "properties": {
        "color": "#d94a4a",
        "timeline": [
          "1096-08",
          "1096-09",
          "1096-10",
          "1096-11",
          "1096-12",
          "1096-12",
          "1097-05",
          "1097-07",
          "1097-08",
          "1097-09",
          "1097-10",
          "1098-12",
          "1099-02",
          "1099-06",
          "1099-06"
        ]
      },
      "geometry": {
        "type": "LineString",
        "coordinates": [
          [
            5.4,
            49.2
          ],
          [
            12.1,
            49
          ],
          [
            16.4,
            48.2
          ],
          [
            20.5,
            44.8
          ],
          [
            23.3,
            42.7
          ],
          [
            29,
            41
          ],
          [
            29.7,
            40.4
          ],
          [
            30.5,
            39.8
          ],
          [
            32.5,
            37.9
          ],
          [
            34,
            37.4
          ],
          [
            36.2,
            36.2
          ],
          [
            36.7,
            35.6
          ],
          [
            35.8,
            34.4
          ],
          [
            34.8,
            32
          ],
          [
            35.23,
            31.78
          ]
        ]
      }
    },
    {
      "type": "Feature",
      "properties": {
        "color": "#e8884a",
        "timeline": [
          "1096-04",
          "1096-05",
          "1096-06",
          "1096-07",
          "1096-07",
          "1096-08",
          "1096-10"
        ]
      },
      "geometry": {
        "type": "LineString",
        "coordinates": [
          [
            7,
            50.9
          ],
          [
            12.1,
            49
          ],
          [
            16.4,
            48.2
          ],
          [
            20.5,
            44.8
          ],
          [
            23.3,
            42.7
          ],
          [
            29,
            41
          ],
          [
            29.6,
            40.4
          ]
        ]
      }
    },
    {
      "type": "Feature",
      "properties": {
        "color": "#d9c44a",
        "timeline": [
          "1096-10",
          "1096-11",
          "1096-12",
          "1097-01",
          "1097-02",
          "1097-03",
          "1097-04",
          "1097-05"
        ]
      },
      "geometry": {
        "type": "LineString",
        "coordinates": [
          [
            1.4,
            43.6
          ],
          [
            9.2,
            45.5
          ],
          [
            13.8,
            45.7
          ],
          [
            18.1,
            42.7
          ],
          [
            19.5,
            41.3
          ],
          [
            22.9,
            40.6
          ],
          [
            29,
            41
          ],
          [
            29.7,
            40.4
          ]
        ]
      }
    }
  ]
}
