{
  "type": "FeatureCollection",
  "features": [
    {
      "type": "Feature",
      "properties": {
        "color": "#d9c44a",
        "timeline": [
          "1219-05",
          "1219-07",
          "1219-09",
          "1220-02",
          "1220-03",
          "1221-03"
        ]
      },
      "geometry": {
        "type": "LineString",
        "coordinates": [
          [
            110,
            48
          ],
          [
            86,
            47
          ],
          [
            68.3,
            42.9
          ],
          [
            64.4,
            39.8
          ],
          [
            66.9,
            39.6
          ],
          [
            62.2,
            37.7
          ]
        ]
      }
    },
    {
      "type": "Feature",
      "properties": {
        "color": "#d94a4a",
        "timeline": [
          "1236-06",
          "1237-12",
          "1238-02",
          "1240-12",
          "1241-04",
          "1241-04"
        ]
      },
      "geometry": {
        "type": "LineString",
        "coordinates": [
          [
            55,
            51
          ],
          [
            39.7,
            54.6
          ],
          [
            37.6,
            55.7
          ],
          [
            30.5,
            50.45
          ],
          [
            16.2,
            51.2
          ],
          [
            19.1,
            47.5
          ]
        ]
      }
    },
    {
      "type": "Feature",
      "properties": {
        "color": "#4a90d9",
        "timeline": [
          "1231-08",
          "1231-09",
          "1231-11",
          "1231-12"
        ]
      },
      "geometry": {
        "type": "LineString",
        "coordinates": [
          [
            124.4,
            40.1
          ],
          [
            125,
            39.7
          ],
          [
            125.75,
            39
          ],
          [
            126.55,
            37.97
          ]
        ]
      }
    },
    {
      "type": "Feature",
      "properties": {
        "color": "#3eb489",
        "timeline": [
          "1253-05",
          "1255-09",
          "1256-11",
          "1258-01"
        ]
      },
      "geometry": {
        "type": "LineString",
        "coordinates": [
          [
            110,
            48
          ],
          [
            66.9,
            39.6
          ],
          [
            51.4,
            35.7
          ],
          [
            44.4,
            33.3
          ]
        ]
      }
    }
  ]
}
